{
  "type": "FeatureCollection",
  "features": [
    {
      "type": "Feature",
      "properties": {
        "norad_id": 47053,
        "name": "COSMOS 2251 DEB",
        "group": "cosmos-2251-debris",
        "lat": 43.56796731208128,
        "lon": -109.04827239017848,
        "alt_km": 752.7261916837642,
        "timestamp": "2025-12-24T09:46:31.403636+00:00",
        "meta_object_name": "COSMOS 2251 DEB",
        "meta_object_id": "1993-036BXH",
        "meta_epoch": "2025-12-21T23:22:14.227392",
        "meta_mean_motion": 13.59701409,
        "meta_eccentricity": 0.03775476,
        "meta_inclination": 74.0593,
        "meta_ra_of_asc_node": 239.1144,
        "meta_arg_of_pericenter": 50.5889,
        "meta_mean_anomaly": 327.7768,
        "meta_ephemeris_type": 0,
        "meta_classification_type": "U",
        "meta_norad_cat_id": 47053,
        "meta_element_set_no": 999,
        "meta_rev_at_epoch": 29014,
        "meta_bstar": 0.0013674764,
        "meta_mean_motion_dot": 1.606e-05,
        "meta_mean_motion_ddot": 0,
        "tle_line1": "1 47053U 93036BXH 25355.97377578  .00001606  00000+0  13675-2 0  9999",
        "tle_line2": "2 47053  74.0593 239.1144 0377547  50.5889 327.7768 13.59701409290146"
      },
      "geometry": {
        "type": "Point",
        "coordinates": [
          -109.04827239017848,
          43.56796731208128
        ]
      }
    },
    {
      "type": "Feature",
      "properties": {
        "norad_id": 47059,
        "name": "COSMOS 2251 DEB",
        "group": "cosmos-2251-debris",
        "lat": -44.8136511027362,
        "lon": 47.725732476884545,
        "alt_km": 539.3605792769522,
        "timestamp": "2025-12-24T09:46:31.403646+00:00",
        "meta_object_name": "COSMOS 2251 DEB",
        "meta_object_id": "1993-036BXP",
        "meta_epoch": "2025-12-16T01:10:48.054720",
        "meta_mean_motion": 15.13144812,
        "meta_eccentricity": 0.00128667,
        "meta_inclination": 73.98,
        "meta_ra_of_asc_node": 228.534,
        "meta_arg_of_pericenter": 42.2566,
        "meta_mean_anomaly": 26.5019,
        "meta_ephemeris_type": 0,
        "meta_classification_type": "U",
        "meta_norad_cat_id": 47059,
        "meta_element_set_no": 999,
        "meta_rev_at_epoch": 8355,
        "meta_bstar": 0.0018804977,
        "meta_mean_motion_dot": 0.00033522,
        "meta_mean_motion_ddot": 0,
        "tle_line1": "1 47059U 93036BXP 25350.04916730  .00033522  00000+0  18805-2 0  9999",
        "tle_line2": "2 47059  73.9800 228.5340 0012866  42.2566  26.5019 15.13144812 83550"
      },
      "geometry": {
        "type": "Point",
        "coordinates": [
          47.725732476884545,
          -44.8136511027362
        ]
      }
    },
    {
      "type": "Feature",
      "properties": {
        "norad_id": 47062,
        "name": "COSMOS 2251 DEB",
        "group": "cosmos-2251-debris",
        "lat": 74.0744574503854,
        "lon": 148.69656719533222,
        "alt_km": 987.2971081370224,
        "timestamp": "2025-12-24T09:46:31.403656+00:00",
        "meta_object_name": "COSMOS 2251 DEB",
        "meta_object_id": "1993-036BXS",
        "meta_epoch": "2025-12-23T10:39:12.732768",
        "meta_mean_motion": 13.71972492,
        "meta_eccentricity": 0.03225336,
        "meta_inclination": 74.0838,
        "meta_ra_of_asc_node": 60.5229,
        "meta_arg_of_pericenter": 184.1282,
        "meta_mean_anomaly": 192.9276,
        "meta_ephemeris_type": 0,
        "meta_classification_type": "U",
        "meta_norad_cat_id": 47062,
        "meta_element_set_no": 999,
        "meta_rev_at_epoch": 55749,
        "meta_bstar": 0.00088691048,
        "meta_mean_motion_dot": 1.145e-05,
        "meta_mean_motion_ddot": 0,
        "tle_line1": "1 47062U 93036BXS 25357.44389737  .00001145  00000+0  88691-3 0  9992",
        "tle_line2": "2 47062  74.0838  60.5229 0322533 184.1282 192.9276 13.71972492557490"
      },
      "geometry": {
        "type": "Point",
        "coordinates": [
          148.69656719533222,
          74.0744574503854
        ]
      }
    },
    {
      "type": "Feature",
      "properties": {
        "norad_id": 47068,
        "name": "COSMOS 2251 DEB",
        "group": "cosmos-2251-debris",
        "lat": 20.563342103558693,
        "lon": -172.39821948631908,
        "alt_km": 719.9870538143068,
        "timestamp": "2025-12-24T09:46:31.403667+00:00",
        "meta_object_name": "COSMOS 2251 DEB",
        "meta_object_id": "1993-036BXY",
        "meta_epoch": "2025-12-23T18:48:26.675712",
        "meta_mean_motion": 14.5321924,
        "meta_eccentricity": 0.00182523,
        "meta_inclination": 74.0229,
        "meta_ra_of_asc_node": 182.6094,
        "meta_arg_of_pericenter": 268.9678,
        "meta_mean_anomaly": 90.9393,
        "meta_ephemeris_type": 0,
        "meta_classification_type": "U",
        "meta_norad_cat_id": 47068,
        "meta_element_set_no": 999,
        "meta_rev_at_epoch": 61917,
        "meta_bstar": 0.00081306022,
        "meta_mean_motion_dot": 3.351e-05,
        "meta_mean_motion_ddot": 0,
        "tle_line1": "1 47068U 93036BXY 25357.78364208  .00003351  00000+0  81306-3 0  9998",
        "tle_line2": "2 47068  74.0229 182.6094 0018252 268.9678  90.9393 14.53219240619173"
      },
      "geometry": {
        "type": "Point",
        "coordinates": [
          -172.39821948631908,
          20.563342103558693
        ]
      }
    },
    {
      "type": "Feature",
      "properties": {
        "norad_id": 47073,
        "name": "COSMOS 2251 DEB",
        "group": "cosmos-2251-debris",
        "lat": -43.95643404823661,
        "lon": 165.5706767147211,
        "alt_km": 895.8407820091061,
        "timestamp": "2025-12-24T09:46:31.403677+00:00",
        "meta_object_name": "COSMOS 2251 DEB",
        "meta_object_id": "1993-036BYD",
        "meta_epoch": "2025-12-20T05:09:22.277088",
        "meta_mean_motion": 14.04735867,
        "meta_eccentricity": 0.0161533,
        "meta_inclination": 74.0811,
        "meta_ra_of_asc_node": 188.8357,
        "meta_arg_of_pericenter": 225.3344,
        "meta_mean_anomaly": 133.4535,
        "meta_ephemeris_type": 0,
        "meta_classification_type": "U",
        "meta_norad_cat_id": 47073,
        "meta_element_set_no": 999,
        "meta_rev_at_epoch": 60466,
        "meta_bstar": 0.00045488,
        "meta_mean_motion_dot": 7.94e-06,
        "meta_mean_motion_ddot": 0,
        "tle_line1": "1 47073U 93036BYD 25354.21484117  .00000794  00000+0  45488-3 0  9990",
        "tle_line2": "2 47073  74.0811 188.8357 0161533 225.3344 133.4535 14.04735867604667"
      },
      "geometry": {
        "type": "Point",
        "coordinates": [
          165.5706767147211,
          -43.95643404823661
        ]
      }
    },
    {
      "type": "Feature",
      "properties": {
        "norad_id": 47074,
        "name": "COSMOS 2251 DEB",
        "group": "cosmos-2251-debris",
        "lat": -35.87651559413653,
        "lon": -84.5333996209912,
        "alt_km": 676.5427191077843,
        "timestamp": "2025-12-24T09:46:31.403725+00:00",
        "meta_object_name": "COSMOS 2251 DEB",
        "meta_object_id": "1993-036BYE",
        "meta_epoch": "2025-12-24T01:39:06.472224",
        "meta_mean_motion": 14.35696552,
        "meta_eccentricity": 0.0144836,
        "meta_inclination": 74.0936,
        "meta_ra_of_asc_node": 287.9879,
        "meta_arg_of_pericenter": 313.5556,
        "meta_mean_anomaly": 59.972,
        "meta_ephemeris_type": 0,
        "meta_classification_type": "U",
        "meta_norad_cat_id": 47074,
        "meta_element_set_no": 999,
        "meta_rev_at_epoch": 2845,
        "meta_bstar": 0.0011704,
        "meta_mean_motion_dot": 3.781e-05,
        "meta_mean_motion_ddot": 0,
        "tle_line1": "1 47074U 93036BYE 25358.06882491  .00003781  00000+0  11704-2 0  9997",
        "tle_line2": "2 47074  74.0936 287.9879 0144836 313.5556  59.9720 14.35696552 28454"
      },
      "geometry": {
        "type": "Point",
        "coordinates": [
          -84.5333996209912,
          -35.87651559413653
        ]
      }
    },
    {
      "type": "Feature",
      "properties": {
        "norad_id": 47116,
        "name": "COSMOS 2251 DEB",
        "group": "cosmos-2251-debris",
        "lat": -68.32435515637727,
        "lon": 170.91420451755172,
        "alt_km": 564.439501376678,
        "timestamp": "2025-12-24T09:46:31.403737+00:00",
        "meta_object_name": "COSMOS 2251 DEB",
        "meta_object_id": "1993-036BYJ",
        "meta_epoch": "2025-12-22T09:13:54.172992",
        "meta_mean_motion": 14.98590739,
        "meta_eccentricity": 0.00212329,
        "meta_inclination": 74.0216,
        "meta_ra_of_asc_node": 221.1484,
        "meta_arg_of_pericenter": 314.2258,
        "meta_mean_anomaly": 222.9412,
        "meta_ephemeris_type": 0,
        "meta_classification_type": "U",
        "meta_norad_cat_id": 47116,
        "meta_element_set_no": 999,
        "meta_rev_at_epoch": 59655,
        "meta_bstar": 0.0021038728,
        "meta_mean_motion_dot": 0.000254,
        "meta_mean_motion_ddot": 0,
        "tle_line1": "1 47116U 93036BYJ 25356.38465478  .00025400  00000+0  21039-2 0  9993",
        "tle_line2": "2 47116  74.0216 221.1484 0021232 314.2258 222.9412 14.98590739596555"
      },
      "geometry": {
        "type": "Point",
        "coordinates": [
          170.91420451755172,
          -68.32435515637727
        ]
      }
    }
  ]
}